{
  "type": "FeatureCollection",
  "features": [
    {
      "type": "Feature",
      "properties": {
        "norad_id": 66910,
        "name": "1998-067XW",
        "group": "last-30-days",
        "lat": 15.596992496752982,
        "lon": 139.19533333709617,
        "alt_km": 411.94123794198003,
        "timestamp": "2025-12-15T22:44:27.662605+00:00",
        "meta_object_name": "1998-067XW",
        "meta_object_id": "1998-067XW",
        "meta_epoch": "2025-12-15T02:33:59.321376",
        "meta_mean_motion": 15.52065863,
        "meta_eccentricity": 0.00048103,
        "meta_inclination": 51.6293,
        "meta_ra_of_asc_node": 130.5977,
        "meta_arg_of_pericenter": 220.6145,
        "meta_mean_anomaly": 139.4486,
        "meta_ephemeris_type": 0,
        "meta_classification_type": "U",
        "meta_norad_cat_id": 66910,
        "meta_element_set_no": 999,
        "meta_rev_at_epoch": 198,
        "meta_bstar": 0.00077673091,
        "meta_mean_motion_dot": 0.00047552,
        "meta_mean_motion_ddot": 0,
        "tle_line1": "1 66910U 98067XW  25349.10693659  .00047552  00000+0  77673-3 0  9999",
        "tle_line2": "2 66910  51.6293 130.5977 0004810 220.6145 139.4486 15.52065863  1989"
      },
      "geometry": {
        "type": "Point",
        "coordinates": [
          139.19533333709617,
          15.596992496752982
        ]
      }
    },
    {
      "type": "Feature",
      "properties": {
        "norad_id": 66911,
        "name": "1998-067XX",
        "group": "last-30-days",
        "lat": 21.197503819290844,
        "lon": 144.29726795670604,
        "alt_km": 410.0081157955028,
        "timestamp": "2025-12-15T22:44:27.662617+00:00",
        "meta_object_name": "1998-067XX",
        "meta_object_id": "1998-067XX",
        "meta_epoch": "2025-12-15T02:32:19.891392",
        "meta_mean_motion": 15.5237976,
        "meta_eccentricity": 0.00045157,
        "meta_inclination": 51.6294,
        "meta_ra_of_asc_node": 130.59,
        "meta_arg_of_pericenter": 223.2403,
        "meta_mean_anomaly": 136.8232,
        "meta_ephemeris_type": 0,
        "meta_classification_type": "U",
        "meta_norad_cat_id": 66911,
        "meta_element_set_no": 999,
        "meta_rev_at_epoch": 197,
        "meta_bstar": 0.00090895834,
        "meta_mean_motion_dot": 0.00056424,
        "meta_mean_motion_ddot": 0,
        "tle_line1": "1 66911U 98067XX  25349.10578578  .00056424  00000+0  90896-3 0  9992",
        "tle_line2": "2 66911  51.6294 130.5900 0004515 223.2403 136.8232 15.52379760  1978"
      },
      "geometry": {
        "type": "Point",
        "coordinates": [
          144.29726795670604,
          21.197503819290844
        ]
      }
    },
    {
      "type": "Feature",
      "properties": {
        "norad_id": 66912,
        "name": "1998-067XY",
        "group": "last-30-days",
        "lat": -4.063011293213866,
        "lon": 123.24361696684792,
        "alt_km": 414.96779399636307,
        "timestamp": "2025-12-15T22:44:27.662630+00:00",
        "meta_object_name": "1998-067XY",
        "meta_object_id": "1998-067XY",
        "meta_epoch": "2025-12-15T02:39:57.579840",
        "meta_mean_motion": 15.51387757,
        "meta_eccentricity": 0.00042755,
        "meta_inclination": 51.63,
        "meta_ra_of_asc_node": 130.6254,
        "meta_arg_of_pericenter": 236.764,
        "meta_mean_anomaly": 123.294,
        "meta_ephemeris_type": 0,
        "meta_classification_type": "U",
        "meta_norad_cat_id": 66912,
        "meta_element_set_no": 999,
        "meta_rev_at_epoch": 197,
        "meta_bstar": 0.00062299922,
        "meta_mean_motion_dot": 0.00037074,
        "meta_mean_motion_ddot": 0,
        "tle_line1": "1 66912U 98067XY  25349.11108310  .00037074  00000+0  62300-3 0  9996",
        "tle_line2": "2 66912  51.6300 130.6254 0004275 236.7640 123.2940 15.51387757  1975"
      },
      "geometry": {
        "type": "Point",
        "coordinates": [
          123.24361696684792,
          -4.063011293213866
        ]
      }
    },
    {
      "type": "Feature",
      "properties": {
        "norad_id": 66913,
        "name": "2025-284A",
        "group": "last-30-days",
        "lat": -47.807331200934335,
        "lon": 114.94180919221634,
        "alt_km": 519.3935799545125,
        "timestamp": "2025-12-15T22:44:27.662640+00:00",
        "meta_object_name": "2025-284A",
        "meta_object_id": "2025-284A",
        "meta_epoch": "2025-12-15T07:08:46.902048",
        "meta_mean_motion": 15.19018708,
        "meta_eccentricity": 0.00119938,
        "meta_inclination": 80.4038,
        "meta_ra_of_asc_node": 126.522,
        "meta_arg_of_pericenter": 195.987,
        "meta_mean_anomaly": 164.0981,
        "meta_ephemeris_type": 0,
        "meta_classification_type": "U",
        "meta_norad_cat_id": 66913,
        "meta_element_set_no": 999,
        "meta_rev_at_epoch": 151,
        "meta_bstar": 0.00035654166,
        "meta_mean_motion_dot": 7.498e-05,
        "meta_mean_motion_ddot": 0,
        "tle_line1": "1 66913U 25284A   25349.29776507  .00007498  00000+0  35654-3 0  9995",
        "tle_line2": "2 66913  80.4038 126.5220 0011993 195.9870 164.0981 15.19018708  1516"
      },
      "geometry": {
        "type": "Point",
        "coordinates": [
          114.94180919221634,
          -47.807331200934335
        ]
      }
    },
    {
      "type": "Feature",
      "properties": {
        "norad_id": 66914,
        "name": "2025-284B",
        "group": "last-30-days",
        "lat": -46.32174012982401,
        "lon": 115.49533064846767,
        "alt_km": 514.366564074,
        "timestamp": "2025-12-15T22:44:27.662653+00:00",
        "meta_object_name": "2025-284B",
        "meta_object_id": "2025-284B",
        "meta_epoch": "2025-12-15T08:43:11.128800",
        "meta_mean_motion": 15.18970107,
        "meta_eccentricity": 0.00082486,
        "meta_inclination": 80.4046,
        "meta_ra_of_asc_node": 126.4404,
        "meta_arg_of_pericenter": 238.2053,
        "meta_mean_anomaly": 121.8371,
        "meta_ephemeris_type": 0,
        "meta_classification_type": "U",
        "meta_norad_cat_id": 66914,
        "meta_element_set_no": 999,
        "meta_rev_at_epoch": 152,
        "meta_bstar": 0.0003463978,
        "meta_mean_motion_dot": 7.267e-05,
        "meta_mean_motion_ddot": 0,
        "tle_line1": "1 66914U 25284B   25349.36332325  .00007267  00000+0  34640-3 0  9998",
        "tle_line2": "2 66914  80.4046 126.4404 0008248 238.2053 121.8371 15.18970107  1526"
      },
      "geometry": {
        "type": "Point",
        "coordinates": [
          115.49533064846767,
          -46.32174012982401
        ]
      }
    },
    {
      "type": "Feature",
      "properties": {
        "norad_id": 66915,
        "name": "HULIANWANG DIGUI-105",
        "group": "last-30-days",
        "lat": -21.52405415148337,
        "lon": -56.45596391528506,
        "alt_km": 883.2976013854413,
        "timestamp": "2025-12-15T22:44:27.662663+00:00",
        "meta_object_name": "HULIANWANG DIGUI-105",
        "meta_object_id": "2025-285A",
        "meta_epoch": "2025-12-15T08:04:55.176672",
        "meta_mean_motion": 14.03716069,
        "meta_eccentricity": 0.00079534,
        "meta_inclination": 50.0042,
        "meta_ra_of_asc_node": 106.6968,
        "meta_arg_of_pericenter": 291.3825,
        "meta_mean_anomaly": 68.623,
        "meta_ephemeris_type": 0,
        "meta_classification_type": "U",
        "meta_norad_cat_id": 66915,
        "meta_element_set_no": 999,
        "meta_rev_at_epoch": 127,
        "meta_bstar": 0.00023770741,
        "meta_mean_motion_dot": 2.25e-06,
        "meta_mean_motion_ddot": 0,
        "tle_line1": "1 66915U 25285A   25349.33674973  .00000225  00000+0  23771-3 0  9995",
        "tle_line2": "2 66915  50.0042 106.6968 0007953 291.3825  68.6230 14.03716069  1272"
      },
      "geometry": {
        "type": "Point",
        "coordinates": [
          -56.45596391528506,
          -21.52405415148337
        ]
      }
    },
    {
      "type": "Feature",
      "properties": {
        "norad_id": 66916,
        "name": "HULIANWANG DIGUI-106",
        "group": "last-30-days",
        "lat": -32.169649980545714,
        "lon": -43.94697714612474,
        "alt_km": 881.2917587622342,
        "timestamp": "2025-12-15T22:44:27.662675+00:00",
        "meta_object_name": "HULIANWANG DIGUI-106",
        "meta_object_id": "2025-285B",
        "meta_epoch": "2025-12-15T08:00:44.472384",
        "meta_mean_motion": 14.04044179,
        "meta_eccentricity": 0.00067071,
        "meta_inclination": 50.0054,
        "meta_ra_of_asc_node": 106.6825,
        "meta_arg_of_pericenter": 285.3091,
        "meta_mean_anomaly": 74.7072,
        "meta_ephemeris_type": 0,
        "meta_classification_type": "U",
        "meta_norad_cat_id": 66916,
        "meta_element_set_no": 999,
        "meta_rev_at_epoch": 127,
        "meta_bstar": 1.2214937e-05,
        "meta_mean_motion_dot": -1.32e-06,
        "meta_mean_motion_ddot": 0,
        "tle_line1": "1 66916U 25285B   25349.33384806 -.00000132  00000+0  12215-4 0  9999",
        "tle_line2": "2 66916  50.0054 106.6825 0006707 285.3091  74.7072 14.04044179  1271"
      },
      "geometry": {
        "type": "Point",
        "coordinates": [
          -43.94697714612474,
          -32.169649980545714
        ]
      }
    }
  ]
}